{"type": "FeatureCollection", "features": [ {"type": "Feature", "properties": {"norad_id": 61186, "name": "BEIDOU-3 M25 (C47)", "group": "beidou", "lat": 33.42805562161437, "lon": -23.72506593812917, "alt_km": 21527.378276695457, "timestamp": "2025-12-22T20:43:46.114389+00:00", "meta": {"OBJECT_NAME": "BEIDOU-3 M25 (C47)", "OBJECT_ID": "2024-168B", "EPOCH": "2025-12-22T12:27:11.391840", "MEAN_MOTION": 1.86230177, "ECCENTRICITY": 0.0005446, "INCLINATION": 54.6334, "RA_OF_ASC_NODE": 308.3821, "ARG_OF_PERICENTER": 299.7491, "MEAN_ANOMALY": 231.473, "EPHEMERIS_TYPE": 0, "CLASSIFICATION_TYPE": "U", "NORAD_CAT_ID": 61186, "ELEMENT_SET_NO": 999, "REV_AT_EPOCH": 849, "BSTAR": 0, "MEAN_MOTION_DOT": -5.7e-07, "MEAN_MOTION_DDOT": 0}, "tle": {"line1": "1 61186U 24168B   25356.51888185 -.00000057  00000+0  00000+0 0  9999", "line2": "2 61186  54.6334 308.3821 0005446 299.7491 231.4730  1.86230177  8490"}}, "geometry": {"type": "Point", "coordinates": [-23.72506593812917, 33.42805562161437]}}, {"type": "Feature", "properties": {"norad_id": 61187, "name": "BEIDOU-3 M27 (C49)", "group": "beidou", "lat": 2.1105305798671954, "lon": 126.83423907263023, "alt_km": 21534.899728550023, "timestamp": "2025-12-22T20:43:46.114400+00:00", "meta": {"OBJECT_NAME": "BEIDOU-3 M27 (C49)", "OBJECT_ID": "2024-168C", "EPOCH": "2025-12-22T03:50:36.507264", "MEAN_MOTION": 1.86230347, "ECCENTRICITY": 0.00025426, "INCLINATION": 54.6292, "RA_OF_ASC_NODE": 308.3781, "ARG_OF_PERICENTER": 340.4099, "MEAN_ANOMALY": 85.2457, "EPHEMERIS_TYPE": 0, "CLASSIFICATION_TYPE": "U", "NORAD_CAT_ID": 61187, "ELEMENT_SET_NO": 999, "REV_AT_EPOCH": 596, "BSTAR": 0, "MEAN_MOTION_DOT": -5.9e-07, "MEAN_MOTION_DDOT": 0}, "tle": {"line1": "1 61187U 24168C   25356.16014476 -.00000059  00000+0  00000+0 0  9997", "line2": "2 61187  54.6292 308.3781 0002542 340.4099  85.2457  1.86230347  5960"}}, "geometry": {"type": "Point", "coordinates": [126.83423907263023, 2.1105305798671954]}}]}